{
 "generated_at": "2026-07-14T07:10:30Z",
 "sources": [
  {
   "name": "CelesTrak",
   "url": "https://celestrak.org/NORAD/elements/",
   "license": "frei verfügbar; Attribution. Ursprünglich USSPACECOM/Space-Track."
  },
  {
   "name": "GCAT (J. McDowell, planet4589.org)",
   "url": "https://planet4589.org/space/gcat/",
   "license": "CC-BY 4.0"
  }
 ],
 "satellites": [
  {
   "norad": 38709,
   "name": "EXACTVIEW-1 (ADS-1B)",
   "intl": "2012-039C",
   "group": "resource",
   "gcat": {
    "class": "B",
    "category": "COM",
    "owner": "EXEA",
    "state": "CA"
   },
   "omm": {
    "OBJECT_NAME": "EXACTVIEW-1 (ADS-1B)",
    "OBJECT_ID": "2012-039C",
    "EPOCH": "2026-07-13T20:27:34.164000",
    "MEAN_MOTION": 14.24992027,
    "ECCENTRICITY": 0.0011948,
    "INCLINATION": 98.9803,
    "RA_OF_ASC_NODE": 312.8484,
    "ARG_OF_PERICENTER": 95.0194,
    "MEAN_ANOMALY": 265.2349,
    "EPHEMERIS_TYPE": 0,
    "CLASSIFICATION_TYPE": "U",
    "NORAD_CAT_ID": 38709,
    "ELEMENT_SET_NO": 999,
    "REV_AT_EPOCH": 72650,
    "BSTAR": 0.000033433,
    "MEAN_MOTION_DOT": 3.2e-7,
    "MEAN_MOTION_DDOT": 0
   }
  },
  {
   "norad": 40367,
   "name": "FENGYUN 2G",
   "intl": "2014-090A",
   "group": "weather",
   "gcat": {
    "class": "C",
    "category": "MET",
    "owner": "NSMC",
    "state": "CN"
   },
   "omm": {
    "OBJECT_NAME": "FENGYUN 2G",
    "OBJECT_ID": "2014-090A",
    "EPOCH": "2026-07-13T21:27:25.387776",
    "MEAN_MOTION": 1.00260524,
    "ECCENTRICITY": 0.0004207,
    "INCLINATION": 5.7041,
    "RA_OF_ASC_NODE": 72.4904,
    "ARG_OF_PERICENTER": 153.4534,
    "MEAN_ANOMALY": 126.9012,
    "EPHEMERIS_TYPE": 0,
    "CLASSIFICATION_TYPE": "U",
    "NORAD_CAT_ID": 40367,
    "ELEMENT_SET_NO": 999,
    "REV_AT_EPOCH": 4226,
    "BSTAR": 0,
    "MEAN_MOTION_DOT": -0.00000308,
    "MEAN_MOTION_DDOT": 0
   }
  },
  {
   "norad": 43491,
   "name": "FENGYUN 2H",
   "intl": "2018-050A",
   "group": "weather",
   "gcat": {
    "class": "C",
    "category": "MET",
    "owner": "NSMC",
    "state": "CN"
   },
   "omm": {
    "OBJECT_NAME": "FENGYUN 2H",
    "OBJECT_ID": "2018-050A",
    "EPOCH": "2026-07-13T21:01:33.705120",
    "MEAN_MOTION": 1.00267291,
    "ECCENTRICITY": 0.0002304,
    "INCLINATION": 3.0966,
    "RA_OF_ASC_NODE": 78.7532,
    "ARG_OF_PERICENTER": 133.918,
    "MEAN_ANOMALY": 113.6184,
    "EPHEMERIS_TYPE": 0,
    "CLASSIFICATION_TYPE": "U",
    "NORAD_CAT_ID": 43491,
    "ELEMENT_SET_NO": 999,
    "REV_AT_EPOCH": 2970,
    "BSTAR": 0,
    "MEAN_MOTION_DOT": -0.00000135,
    "MEAN_MOTION_DDOT": 0
   }
  },
  {
   "norad": 32958,
   "name": "FENGYUN 3A",
   "intl": "2008-026A",
   "group": "weather",
   "gcat": {
    "class": null,
    "category": null,
    "owner": null,
    "state": null
   },
   "omm": {
    "OBJECT_NAME": "FENGYUN 3A",
    "OBJECT_ID": "2008-026A",
    "EPOCH": "2026-07-13T19:56:40.324992",
    "MEAN_MOTION": 14.19576343,
    "ECCENTRICITY": 0.0009697,
    "INCLINATION": 98.6887,
    "RA_OF_ASC_NODE": 135.1665,
    "ARG_OF_PERICENTER": 55.4329,
    "MEAN_ANOMALY": 304.7761,
    "EPHEMERIS_TYPE": 0,
    "CLASSIFICATION_TYPE": "U",
    "NORAD_CAT_ID": 32958,
    "ELEMENT_SET_NO": 999,
    "REV_AT_EPOCH": 93918,
    "BSTAR": 0.000025818,
    "MEAN_MOTION_DOT": 1.1e-7,
    "MEAN_MOTION_DDOT": 0
   }
  },
  {
   "norad": 37214,
   "name": "FENGYUN 3B",
   "intl": "2010-059A",
   "group": "weather",
   "gcat": {
    "class": null,
    "category": null,
    "owner": null,
    "state": null
   },
   "omm": {
    "OBJECT_NAME": "FENGYUN 3B",
    "OBJECT_ID": "2010-059A",
    "EPOCH": "2026-07-13T19:59:28.505184",
    "MEAN_MOTION": 14.14847063,
    "ECCENTRICITY": 0.0023123,
    "INCLINATION": 98.9615,
    "RA_OF_ASC_NODE": 240.9582,
    "ARG_OF_PERICENTER": 110.2177,
    "MEAN_ANOMALY": 0.5474,
    "EPHEMERIS_TYPE": 0,
    "CLASSIFICATION_TYPE": "U",
    "NORAD_CAT_ID": 37214,
    "ELEMENT_SET_NO": 999,
    "REV_AT_EPOCH": 81119,
    "BSTAR": 0.000011188,
    "MEAN_MOTION_DOT": -2.3e-7,
    "MEAN_MOTION_DDOT": 0
   }
  },
  {
   "norad": 39260,
   "name": "FENGYUN 3C",
   "intl": "2013-052A",
   "group": "weather",
   "gcat": {
    "class": "C",
    "category": "MET",
    "owner": "NSMC",
    "state": "CN"
   },
   "omm": {
    "OBJECT_NAME": "FENGYUN 3C",
    "OBJECT_ID": "2013-052A",
    "EPOCH": "2026-07-13T21:35:32.847072",
    "MEAN_MOTION": 14.15760587,
    "ECCENTRICITY": 0.0013731,
    "INCLINATION": 98.4997,
    "RA_OF_ASC_NODE": 167.5504,
    "ARG_OF_PERICENTER": 309.9747,
    "MEAN_ANOMALY": 50.0221,
    "EPHEMERIS_TYPE": 0,
    "CLASSIFICATION_TYPE": "U",
    "NORAD_CAT_ID": 39260,
    "ELEMENT_SET_NO": 999,
    "REV_AT_EPOCH": 66234,
    "BSTAR": 0.000035621,
    "MEAN_MOTION_DOT": 2.8e-7,
    "MEAN_MOTION_DDOT": 0
   }
  },
  {
   "norad": 43010,
   "name": "FENGYUN 3D",
   "intl": "2017-072A",
   "group": "weather",
   "gcat": {
    "class": "C",
    "category": "MET",
    "owner": "NSMC",
    "state": "CN"
   },
   "omm": {
    "OBJECT_NAME": "FENGYUN 3D",
    "OBJECT_ID": "2017-072A",
    "EPOCH": "2026-07-13T20:34:26.800896",
    "MEAN_MOTION": 14.19743445,
    "ECCENTRICITY": 0.0001616,
    "INCLINATION": 99.0135,
    "RA_OF_ASC_NODE": 169.7634,
    "ARG_OF_PERICENTER": 16.7072,
    "MEAN_ANOMALY": 343.4157,
    "EPHEMERIS_TYPE": 0,
    "CLASSIFICATION_TYPE": "U",
    "NORAD_CAT_ID": 43010,
    "ELEMENT_SET_NO": 999,
    "REV_AT_EPOCH": 44877,
    "BSTAR": -0.000088609,
    "MEAN_MOTION_DOT": -0.00000234,
    "MEAN_MOTION_DDOT": 0
   }
  },
  {
   "norad": 49008,
   "name": "FENGYUN 3E",
   "intl": "2021-062A",
   "group": "weather",
   "gcat": {
    "class": "C",
    "category": "MET",
    "owner": "NSMC",
    "state": "CN"
   },
   "omm": {
    "OBJECT_NAME": "FENGYUN 3E",
    "OBJECT_ID": "2021-062A",
    "EPOCH": "2026-07-13T21:48:26.669664",
    "MEAN_MOTION": 14.1990657,
    "ECCENTRICITY": 0.0002294,
    "INCLINATION": 98.7497,
    "RA_OF_ASC_NODE": 198.0188,
    "ARG_OF_PERICENTER": 41.9781,
    "MEAN_ANOMALY": 318.1571,
    "EPHEMERIS_TYPE": 0,
    "CLASSIFICATION_TYPE": "U",
    "NORAD_CAT_ID": 49008,
    "ELEMENT_SET_NO": 999,
    "REV_AT_EPOCH": 26037,
    "BSTAR": 0.00003739,
    "MEAN_MOTION_DOT": 3.5e-7,
    "MEAN_MOTION_DDOT": 0
   }
  },
  {
   "norad": 57490,
   "name": "FENGYUN 3F",
   "intl": "2023-111A",
   "group": "weather",
   "gcat": {
    "class": "C",
    "category": "MET",
    "owner": "NSMC",
    "state": "CN"
   },
   "omm": {
    "OBJECT_NAME": "FENGYUN 3F",
    "OBJECT_ID": "2023-111A",
    "EPOCH": "2026-07-13T19:42:53.415648",
    "MEAN_MOTION": 14.19943286,
    "ECCENTRICITY": 0.0001301,
    "INCLINATION": 98.6826,
    "RA_OF_ASC_NODE": 264.3325,
    "ARG_OF_PERICENTER": 76.9124,
    "MEAN_ANOMALY": 283.2198,
    "EPHEMERIS_TYPE": 0,
    "CLASSIFICATION_TYPE": "U",
    "NORAD_CAT_ID": 57490,
    "ELEMENT_SET_NO": 999,
    "REV_AT_EPOCH": 15264,
    "BSTAR": 0.000024982,
    "MEAN_MOTION_DOT": 1e-7,
    "MEAN_MOTION_DDOT": 0
   }
  },
  {
   "norad": 56232,
   "name": "FENGYUN 3G",
   "intl": "2023-055A",
   "group": "weather",
   "gcat": {
    "class": "C",
    "category": "MET",
    "owner": "NSMC",
    "state": "CN"
   },
   "omm": {
    "OBJECT_NAME": "FENGYUN 3G",
    "OBJECT_ID": "2023-055A",
    "EPOCH": "2026-07-13T13:08:47.792832",
    "MEAN_MOTION": 15.53737121,
    "ECCENTRICITY": 0.0007107,
    "INCLINATION": 49.9903,
    "RA_OF_ASC_NODE": 210.0779,
    "ARG_OF_PERICENTER": 48.3295,
    "MEAN_ANOMALY": 311.8279,
    "EPHEMERIS_TYPE": 0,
    "CLASSIFICATION_TYPE": "U",
    "NORAD_CAT_ID": 56232,
    "ELEMENT_SET_NO": 999,
    "REV_AT_EPOCH": 18410,
    "BSTAR": 0.00020712,
    "MEAN_MOTION_DOT": 0.00013096,
    "MEAN_MOTION_DDOT": 0
   }
  },
  {
   "norad": 65815,
   "name": "FENGYUN 3H",
   "intl": "2025-219A",
   "group": "weather",
   "gcat": {
    "class": "C",
    "category": "MET",
    "owner": "NSMC",
    "state": "CN"
   },
   "omm": {
    "OBJECT_NAME": "FENGYUN 3H",
    "OBJECT_ID": "2025-219A",
    "EPOCH": "2026-07-13T19:38:10.573152",
    "MEAN_MOTION": 14.19924681,
    "ECCENTRICITY": 0.0001184,
    "INCLINATION": 98.6771,
    "RA_OF_ASC_NODE": 135.0702,
    "ARG_OF_PERICENTER": 63.0799,
    "MEAN_ANOMALY": 297.0498,
    "EPHEMERIS_TYPE": 0,
    "CLASSIFICATION_TYPE": "U",
    "NORAD_CAT_ID": 65815,
    "ELEMENT_SET_NO": 999,
    "REV_AT_EPOCH": 4116,
    "BSTAR": 0.000019054,
    "MEAN_MOTION_DOT": -3e-8,
    "MEAN_MOTION_DDOT": 0
   }
  },
  {
   "norad": 41882,
   "name": "FENGYUN 4A",
   "intl": "2016-077A",
   "group": "weather",
   "gcat": {
    "class": "C",
    "category": "MET",
    "owner": "NSMC",
    "state": "CN"
   },
   "omm": {
    "OBJECT_NAME": "FENGYUN 4A",
    "OBJECT_ID": "2016-077A",
    "EPOCH": "2026-07-13T20:53:49.989408",
    "MEAN_MOTION": 1.0026884,
    "ECCENTRICITY": 0.0008511,
    "INCLINATION": 2.3871,
    "RA_OF_ASC_NODE": 79.9757,
    "ARG_OF_PERICENTER": 159.5171,
    "MEAN_ANOMALY": 129.4668,
    "EPHEMERIS_TYPE": 0,
    "CLASSIFICATION_TYPE": "U",
    "NORAD_CAT_ID": 41882,
    "ELEMENT_SET_NO": 999,
    "REV_AT_EPOCH": 3519,
    "BSTAR": 0,
    "MEAN_MOTION_DOT": -0.00000364,
    "MEAN_MOTION_DDOT": 0
   }
  },
  {
   "norad": 42920,
   "name": "FORMOSAT-5",
   "intl": "2017-049A",
   "group": "resource",
   "gcat": {
    "class": "C",
    "category": "IMG/SCI",
    "owner": "NSPO",
    "state": "TW"
   },
   "omm": {
    "OBJECT_NAME": "FORMOSAT-5",
    "OBJECT_ID": "2017-049A",
    "EPOCH": "2026-07-13T19:27:13.059648",
    "MEAN_MOTION": 14.50907575,
    "ECCENTRICITY": 0.0011425,
    "INCLINATION": 98.2247,
    "RA_OF_ASC_NODE": 269.528,
    "ARG_OF_PERICENTER": 8.0682,
    "MEAN_ANOMALY": 352.0695,
    "EPHEMERIS_TYPE": 0,
    "CLASSIFICATION_TYPE": "U",
    "NORAD_CAT_ID": 42920,
    "ELEMENT_SET_NO": 999,
    "REV_AT_EPOCH": 47053,
    "BSTAR": 0.000020659,
    "MEAN_MOTION_DOT": 3.8e-7,
    "MEAN_MOTION_DDOT": 0
   }
  }
 ]
}
